{"type":"FeatureCollection","features":[{"type":"Feature","geometry":{"type":"Polygon","coordinates":[[[-97.78567868965517,30.300234551724138],[-97.77701685082873,30.304898618784538],[-97.75690555555553,30.2902722222222],[-97.78534902182092,30.297785590669676],[-97.78567868965517,30.300234551724138]]]},"properties":{"zone_id":"n01-tarrytown-lake-austin-blvd","name":"N1 · Tarrytown–Lake Austin Blvd corridor","shore":"N","value_tier":"A","centroid_lat":30.3,"centroid_lon":-97.783,"detail_width_km":1.4}},{"type":"Feature","geometry":{"type":"Polygon","coordinates":[[[-97.77119705882355,30.298650000000006],[-97.80072299703258,30.315958308605314],[-97.79258121019105,30.316218152866224],[-97.77701685082877,30.304898618784566],[-97.77119705882355,30.298650000000006]]]},"properties":{"zone_id":"n02-laguna-gloria-mayfield","name":"N2 · Laguna Gloria / Mayfield shore","shore":"N","value_tier":"C","centroid_lat":30.3121,"centroid_lon":-97.7742,"detail_width_km":0}},{"type":"Feature","geometry":{"type":"Polygon","coordinates":[[[-97.74570959042912,30.280620759342423],[-97.74672148834902,30.279926519384873],[-97.74775011900564,30.279257321737514],[-97.74879486279035,30.27861356949999],[-97.74985509038851,30.277995650444566],[-97.7509301631587,30.277403936782584],[-97.75201943351728,30.276838784940225],[-97.75312224532848,30.27630053534383],[-97.75423793429975,30.275789512214825],[-97.75536582838176,30.275306023374437],[-97.75650524817326,30.274850360058263],[-97.7576555073304,30.27442279674085],[-97.75881591298005,30.274023590970348],[-97.75998576613728,30.27365298321339],[-97.76116436212625,30.273311196710228],[-97.76235099100484,30.272998437340274],[-97.76354493799217,30.272714893498073],[-97.76474548389919,30.272460735979838],[-97.76595190556199,30.272236117880553],[-97.76716347627723,30.272041174501762],[-97.76837946624005,30.271876023270064],[-97.76959914298352,30.27174076366639],[-97.77082177182002,30.271635477166065],[-97.77204661628363,30.27156022718974],[-97.77327293857385,30.27151505906519],[-97.7745,30.2715],[-97.77572706142615,30.27151505906519],[-97.77695338371637,30.27156022718974],[-97.77811777047806,30.271631762865372],[-97.7883176301649,30.316354224569192],[-97.78770451230626,30.316373792160427],[-97.745,30.29400476190476],[-97.745,30.281133650774493],[-97.74570959042912,30.280620759342423]]]},"properties":{"zone_id":"n03-mount-bonnell-shores","name":"N3 · Mount Bonnell shores / Dry Creek mouth","shore":"N","value_tier":"A","centroid_lat":30.3215,"centroid_lon":-97.7745,"detail_width_km":1.2}},{"type":"Feature","geometry":{"type":"Polygon","coordinates":[[[-97.78165130208332,30.33955325520836],[-97.77619616895875,30.325915422396854],[-97.78923367647059,30.320370735294127],[-97.79143612652608,30.32396420643729],[-97.79161631182227,30.32620014215816],[-97.78165130208332,30.33955325520836]]]},"properties":{"zone_id":"n04-watersedge","name":"N4 · Watersedge (gated)","shore":"N","value_tier":"A","centroid_lat":30.3302,"centroid_lon":-97.7782,"detail_width_km":1.0}},{"type":"Feature","geometry":{"type":"Polygon","coordinates":[[[-97.745,30.354594007490643],[-97.745,30.33713202247188],[-97.77619616895875,30.325915422396854],[-97.78165130208332,30.33955325520836],[-97.77791285451636,30.34485574716557],[-97.745,30.354594007490643]]]},"properties":{"zone_id":"n05-the-island-canal-grid","name":"N5 · The Island at Mount Bonnell Shores — CANAL GRID","shore":"N","value_tier":"A","centroid_lat":30.3304,"centroid_lon":-97.7777,"detail_width_km":0.9}},{"type":"Feature","geometry":{"type":"Polygon","coordinates":[[[-97.811747891458,30.36798792979512],[-97.81516712508446,30.37669463810167],[-97.81412482009847,30.407833499558127],[-97.78480523671281,30.347302746761947],[-97.79051119655891,30.34713735662148],[-97.811747891458,30.36798792979512]]]},"properties":{"zone_id":"n06-the-courtyard-bull-creek","name":"N6 · The Courtyard (gated, Bull Creek arm)","shore":"N","value_tier":"A","centroid_lat":30.354,"centroid_lon":-97.792,"detail_width_km":1.1}},{"type":"Feature","geometry":{"type":"Polygon","coordinates":[]},"properties":{"zone_id":"n07-bull-creek-mouth-county-line","name":"N7 · Bull Creek arm mouth / County Line","shore":"N","value_tier":"B","centroid_lat":30.3571,"centroid_lon":-97.7856,"detail_width_km":1.2}},{"type":"Feature","geometry":{"type":"Polygon","coordinates":[[[-97.82520535331905,30.340368002447228],[-97.83112896114906,30.344064690040398],[-97.81516712508446,30.37669463810167],[-97.811747891458,30.36798792979512],[-97.8069085492228,30.345750000000002],[-97.80738315668432,30.338703904609538],[-97.80802326786267,30.33826407361584],[-97.82520535331905,30.340368002447228]]]},"properties":{"zone_id":"n08-greenshores","name":"N8 · Greenshores on Lake Austin","shore":"N","value_tier":"A","centroid_lat":30.3443,"centroid_lon":-97.8167,"detail_width_km":1.2}},{"type":"Feature","geometry":{"type":"Polygon","coordinates":[[[-97.81685365853659,30.319076219512198],[-97.82611055088702,30.306347992530338],[-97.83084114857026,30.31480347027911],[-97.83507722524644,30.338666702221573],[-97.83254457256129,30.34321302138589],[-97.83112896114906,30.344064690040398],[-97.82520535331905,30.340368002447228],[-97.81634363484088,30.322391373534327],[-97.81685365853659,30.319076219512198]]]},"properties":{"zone_id":"n09-ski-shores-pearce-manana","name":"N9 · Ski Shores / Pearce / Manana strip","shore":"N","value_tier":"A","centroid_lat":30.331,"centroid_lon":-97.825,"detail_width_km":1.2}},{"type":"Feature","geometry":{"type":"Polygon","coordinates":[[[-97.83084114857026,30.31480347027911],[-97.84914633223158,30.325748837829195],[-97.83990937759336,30.33707717842324],[-97.83507722524644,30.338666702221573],[-97.83084114857026,30.31480347027911]]]},"properties":{"zone_id":"n10-emma-long-park","name":"N10 · Emma Long Metropolitan Park shore","shore":"N","value_tier":"C","centroid_lat":30.328,"centroid_lon":-97.8419,"detail_width_km":0}},{"type":"Feature","geometry":{"type":"Polygon","coordinates":[[[-97.8633736,30.3484684],[-97.86355833333334,30.348627777777786],[-97.84752739726027,30.359315068493142],[-97.84485610881323,30.350262368755967],[-97.8525993150685,30.345774828767123],[-97.8633736,30.3484684]]]},"properties":{"zone_id":"n11-coldwater","name":"N11 · Coldwater / Sanctuary at Coldwater","shore":"N","value_tier":"A","centroid_lat":30.352,"centroid_lon":-97.852,"detail_width_km":1.4}},{"type":"Feature","geometry":{"type":"Polygon","coordinates":[[[-97.88227442173212,30.374079047875192],[-97.8420950389105,30.435],[-97.8363148148148,30.435],[-97.84752739726027,30.359315068493142],[-97.86355833333334,30.348627777777786],[-97.87858424185576,30.355117841552733],[-97.88377375867591,30.36358368926856],[-97.88227442173212,30.374079047875192]]]},"properties":{"zone_id":"n12-river-place-panther-hollow","name":"N12 · River Place / Panther Hollow arm","shore":"N","value_tier":"B","centroid_lat":30.358,"centroid_lon":-97.856,"detail_width_km":1.4}},{"type":"Feature","geometry":{"type":"Polygon","coordinates":[[[-97.81412482009847,30.407833499558127],[-97.81516712508446,30.37669463810167],[-97.83112896114906,30.344064690040398],[-97.83254457256129,30.34321302138589],[-97.84485610881323,30.350262368755967],[-97.84752739726027,30.359315068493142],[-97.8363148148148,30.435],[-97.8148766605166,30.435],[-97.81412482009847,30.407833499558127]]]},"properties":{"zone_id":"n13-turkey-creek-arm","name":"N13 · Turkey Creek arm","shore":"N","value_tier":"C","centroid_lat":30.3556,"centroid_lon":-97.8398,"detail_width_km":0}},{"type":"Feature","geometry":{"type":"Polygon","coordinates":[[[-97.8998689162966,30.321074502742842],[-97.91408461498601,30.33062453622137],[-97.91662763908317,30.335828317012798],[-97.91646390784983,30.349581740614333],[-97.895203125,30.355656250000006],[-97.8998689162966,30.321074502742842]]]},"properties":{"zone_id":"n14-selma-hughes-park","name":"N14 · Selma Hughes Park shore","shore":"N","value_tier":"C","centroid_lat":30.338,"centroid_lon":-97.904,"detail_width_km":0}},{"type":"Feature","geometry":{"type":"Polygon","coordinates":[[[-97.91944548389918,30.289260735979838],[-97.92065190556198,30.289036117880553],[-97.92186347627722,30.288841174501762],[-97.92307946624004,30.288676023270064],[-97.92429914298351,30.28854076366639],[-97.92552177182002,30.288435477166065],[-97.92674661628362,30.28836022718974],[-97.92797293857384,30.28831505906519],[-97.9292,30.2883],[-97.93042706142614,30.28831505906519],[-97.93165338371637,30.28836022718974],[-97.93287822817997,30.288435477166065],[-97.93410085701647,30.28854076366639],[-97.93532053375995,30.288676023270064],[-97.93653652372276,30.288841174501762],[-97.937748094438,30.289036117880553],[-97.93895451610081,30.289260735979838],[-97.94015506200783,30.289514893498072],[-97.94134900899516,30.289798437340274],[-97.94253563787375,30.290111196710228],[-97.94371423386272,30.290452983213388],[-97.94488408701994,30.290823590970348],[-97.9460444926696,30.29122279674085],[-97.94719475182674,30.291650360058263],[-97.94833417161824,30.292106023374437],[-97.94946206570025,30.292589512214825],[-97.95057775467151,30.29310053534383],[-97.95168056648272,30.293638784940224],[-97.9527698368413,30.294203936782583],[-97.95384490961149,30.294795650444566],[-97.95490513720965,30.29541356949999],[-97.955,30.295472022236858],[-97.955,30.325111711711738],[-97.91662763908317,30.335828317012798],[-97.91717596717328,30.289768757443795],[-97.91824493799216,30.289514893498072],[-97.91944548389918,30.289260735979838]]]},"properties":{"zone_id":"n15-caslano","name":"N15 · Caslano on Lake Austin (Steiner Ranch)","shore":"N","value_tier":"A","centroid_lat":30.3383,"centroid_lon":-97.9292,"detail_width_km":1.1}},{"type":"Feature","geometry":{"type":"Polygon","coordinates":[[[-97.91646390784983,30.349581740614333],[-97.92808190806238,30.356795805728265],[-97.91138260869565,30.375999999999998],[-97.89309021739135,30.376],[-97.88227442173212,30.374079047875192],[-97.88377375867591,30.36358368926856],[-97.895203125,30.355656250000006],[-97.91646390784983,30.349581740614333]]]},"properties":{"zone_id":"n16-steiner-bellagio-lake-club","name":"N16 · Steiner Ranch waterfront — Bellagio / Lake Club","shore":"N","value_tier":"A","centroid_lat":30.366,"centroid_lon":-97.912,"detail_width_km":1.4}},{"type":"Feature","geometry":{"type":"Polygon","coordinates":[[[-97.91662763908319,30.335828317012794],[-97.91408461498602,30.330624536221375],[-97.955,30.288298275862083],[-97.955,30.325111711711738],[-97.91662763908319,30.335828317012794]]]},"properties":{"zone_id":"n17-mary-quinlan-lake-austin-spa","name":"N17 · Mary Quinlan Park / Lake Austin Spa shore","shore":"N","value_tier":"C","centroid_lat":30.3272,"centroid_lon":-97.9261,"detail_width_km":0}},{"type":"Feature","geometry":{"type":"Polygon","coordinates":[[[-97.95487640902965,30.407584087019945],[-97.95447720325915,30.408744492669612],[-97.95404963994173,30.409894751826748],[-97.95359397662556,30.411034171618255],[-97.95311048778517,30.41216206570025],[-97.95259946465617,30.413277754671515],[-97.95206121505977,30.41438056648273],[-97.95149606321742,30.4154698368413],[-97.95090434955543,30.41654490961149],[-97.95028643050001,30.417605137209662],[-97.94964267826248,30.418649880994355],[-97.9490203172668,30.419606518547063],[-97.89309021739133,30.375999999999998],[-97.955,30.386995559845577],[-97.955,30.407193962193485],[-97.95487640902965,30.407584087019945]]]},"properties":{"zone_id":"n18-mansfield-dam-n","name":"N18 · Mansfield Dam terminus (N)","shore":"N","value_tier":"C","centroid_lat":30.3919,"centroid_lon":-97.9074,"detail_width_km":0}},{"type":"Feature","geometry":{"type":"Polygon","coordinates":[[[-97.83596121505978,30.26551943351727],[-97.83649946465619,30.266622245328485],[-97.83701048778518,30.26773793429975],[-97.83749397662557,30.268865828381745],[-97.8376751871235,30.269318958621632],[-97.82743738155766,30.288375467991692],[-97.80537405168819,30.29793624426845],[-97.79020437062937,30.29377465034965],[-97.76226376811596,30.265],[-97.83569171464883,30.265],[-97.83596121505978,30.26551943351727]]]},"properties":{"zone_id":"s01-stratford-hills-redbud","name":"S1 · Stratford Hills / Redbud","shore":"S","value_tier":"B","centroid_lat":30.288,"centroid_lon":-97.7913,"detail_width_km":1.2}},{"type":"Feature","geometry":{"type":"Polygon","coordinates":[[[-97.79020437062938,30.29377465034965],[-97.8053740516882,30.29793624426845],[-97.79344685714287,30.30917971428571],[-97.78567868965517,30.300234551724138],[-97.78534902182092,30.297785590669676],[-97.79020437062938,30.29377465034965]]]},"properties":{"zone_id":"s02-laguna-loma","name":"S2 · Laguna Loma","shore":"S","value_tier":"A","centroid_lat":30.2993,"centroid_lon":-97.7882,"detail_width_km":1.0}},{"type":"Feature","geometry":{"type":"Polygon","coordinates":[]},"properties":{"zone_id":"s03-oyster-landing-hula-hut","name":"S3 · Oyster Landing / Hula Hut–Mozart's basin","shore":"S","value_tier":"B","centroid_lat":30.2947,"centroid_lon":-97.7844,"detail_width_km":1.0}},{"type":"Feature","geometry":{"type":"Polygon","coordinates":[[[-97.79344685714287,30.30917971428571],[-97.78840588235295,30.31674117647059],[-97.78770451230626,30.316373792160423],[-97.77701685082873,30.304898618784538],[-97.78567868965517,30.300234551724138],[-97.79344685714287,30.30917971428571]]]},"properties":{"zone_id":"s04-westlake-lake-austin-marina","name":"S4 · Westlake Dr corridor / Lake Austin Marina","shore":"S","value_tier":"A","centroid_lat":30.3026,"centroid_lon":-97.7844,"detail_width_km":1.1}},{"type":"Feature","geometry":{"type":"Polygon","coordinates":[[[-97.79143612652608,30.32396420643729],[-97.78923367647059,30.320370735294127],[-97.78840588235295,30.31674117647059],[-97.79344685714287,30.30917971428571],[-97.8053740516882,30.29793624426845],[-97.82743738155766,30.288375467991692],[-97.82611055088702,30.306347992530338],[-97.81685365853659,30.319076219512198],[-97.79143612652608,30.32396420643729]]]},"properties":{"zone_id":"s05-st-tropez","name":"S5 · St. Tropez (gated villas)","shore":"S","value_tier":"A","centroid_lat":30.315,"centroid_lon":-97.803,"detail_width_km":1.0}},{"type":"Feature","geometry":{"type":"Polygon","coordinates":[[[-97.79827303063458,30.333784436542672],[-97.79249655172413,30.34575],[-97.79051119655891,30.34713735662148],[-97.78480523671281,30.347302746761947],[-97.77791285451636,30.34485574716557],[-97.78165130208332,30.33955325520836],[-97.79161631182227,30.32620014215816],[-97.79827303063458,30.333784436542672]]]},"properties":{"zone_id":"s06-rockcliff-estates","name":"S6 · Rockcliff Rd estates","shore":"S","value_tier":"A","centroid_lat":30.3402,"centroid_lon":-97.7916,"detail_width_km":1.2}},{"type":"Feature","geometry":{"type":"Polygon","coordinates":[[[-97.80738315668432,30.338703904609538],[-97.79827303063458,30.333784436542672],[-97.79161631182227,30.32620014215816],[-97.79143612652608,30.32396420643729],[-97.81685365853659,30.319076219512198],[-97.81634363484088,30.322391373534327],[-97.80802326786267,30.33826407361584],[-97.80738315668432,30.338703904609538]]]},"properties":{"zone_id":"s07-davenport-ranch","name":"S7 · Davenport Ranch","shore":"S","value_tier":"A","centroid_lat":30.328,"centroid_lon":-97.8055,"detail_width_km":1.3}},{"type":"Feature","geometry":{"type":"Polygon","coordinates":[[[-97.8069085492228,30.345750000000002],[-97.79249655172413,30.34575],[-97.79827303063458,30.333784436542672],[-97.80738315668432,30.338703904609538],[-97.8069085492228,30.345750000000002]]]},"properties":{"zone_id":"s08-austin-country-club","name":"S8 · Austin Country Club environs","shore":"S","value_tier":"A","centroid_lat":30.343,"centroid_lon":-97.7974,"detail_width_km":1.3}},{"type":"Feature","geometry":{"type":"Polygon","coordinates":[[[-97.8069085492228,30.345750000000002],[-97.811747891458,30.36798792979512],[-97.79051119655891,30.34713735662148],[-97.79249655172413,30.34575],[-97.8069085492228,30.345750000000002]]]},"properties":{"zone_id":"s09-loop360-boat-ramp","name":"S9 · Loop 360 Boat Ramp / Pennybacker Bridge","shore":"S","value_tier":"C","centroid_lat":30.3485,"centroid_lon":-97.7974,"detail_width_km":0}},{"type":"Feature","geometry":{"type":"Polygon","coordinates":[[[-97.81634363484088,30.322391373534327],[-97.82520535331905,30.340368002447228],[-97.80802326786267,30.33826407361584],[-97.81634363484088,30.322391373534327]]]},"properties":{"zone_id":"s10-rivercrest","name":"S10 · Rivercrest","shore":"S","value_tier":"A","centroid_lat":30.3345,"centroid_lon":-97.8179,"detail_width_km":1.1}},{"type":"Feature","geometry":{"type":"Polygon","coordinates":[[[-97.83990937759336,30.33707717842324],[-97.84975238758456,30.338568543573416],[-97.8525993150685,30.345774828767123],[-97.84485610881323,30.350262368755967],[-97.83254457256129,30.34321302138589],[-97.83507722524644,30.338666702221573],[-97.83990937759336,30.33707717842324]]]},"properties":{"zone_id":"s11-river-hills-weston","name":"S11 · River Hills Rd / Weston Ln","shore":"S","value_tier":"A","centroid_lat":30.3432,"centroid_lon":-97.8469,"detail_width_km":1.3}},{"type":"Feature","geometry":{"type":"Polygon","coordinates":[[[-97.84914633223158,30.325748837829195],[-97.85831917608026,30.325320771782927],[-97.85745324581352,30.330982623526978],[-97.84975238758456,30.338568543573416],[-97.83990937759336,30.33707717842324],[-97.84914633223158,30.325748837829195]]]},"properties":{"zone_id":"s12-cypress-banks","name":"S12 · Cypress Banks","shore":"S","value_tier":"B","centroid_lat":30.3333,"centroid_lon":-97.8484,"detail_width_km":1.1}},{"type":"Feature","geometry":{"type":"Polygon","coordinates":[[[-97.82611055088702,30.306347992530338],[-97.82743738155766,30.288375467991692],[-97.83999547872341,30.265],[-97.88255389048992,30.265],[-97.88246470905955,30.29594595633878],[-97.87888401402823,30.304639088164794],[-97.85831917608026,30.325320771782927],[-97.84914633223158,30.325748837829195],[-97.83084114857026,30.31480347027911],[-97.82611055088702,30.306347992530338]]]},"properties":{"zone_id":"s13-rob-roy-on-the-lake","name":"S13 · Rob Roy on the Lake","shore":"S","value_tier":"A","centroid_lat":30.3183,"centroid_lon":-97.8477,"detail_width_km":1.4}},{"type":"Feature","geometry":{"type":"Polygon","coordinates":[[[-97.84975238758456,30.338568543573416],[-97.85745324581352,30.330982623526978],[-97.85892080000002,30.33470520000007],[-97.8633736,30.3484684],[-97.8525993150685,30.345774828767123],[-97.84975238758456,30.338568543573416]]]},"properties":{"zone_id":"s14-bee-creek-arm","name":"S14 · Bee Creek arm","shore":"S","value_tier":"B","centroid_lat":30.34,"centroid_lon":-97.855,"detail_width_km":1.4}},{"type":"Feature","geometry":{"type":"Polygon","coordinates":[[[-97.87834674329503,30.339561685823625],[-97.87858424185576,30.355117841552733],[-97.86355833333334,30.348627777777786],[-97.8633736,30.3484684],[-97.85892080000002,30.33470520000007],[-97.87834674329503,30.339561685823625]]]},"properties":{"zone_id":"s15-cuernavaca","name":"S15 · Cuernavaca / River Terrace / Saratoga Point","shore":"S","value_tier":"B","centroid_lat":30.3367,"centroid_lon":-97.8652,"detail_width_km":1.3}},{"type":"Feature","geometry":{"type":"Polygon","coordinates":[[[-97.85745324581352,30.330982623526978],[-97.85831917608026,30.325320771782927],[-97.87888401402823,30.304639088164794],[-97.87834674329503,30.339561685823625],[-97.85892080000002,30.33470520000007],[-97.85745324581352,30.330982623526978]]]},"properties":{"zone_id":"s16-austin-lake-hills","name":"S16 · Austin Lake Hills","shore":"S","value_tier":"B","centroid_lat":30.3359,"centroid_lon":-97.8654,"detail_width_km":1.3}},{"type":"Feature","geometry":{"type":"Polygon","coordinates":[[[-97.88377375867591,30.36358368926856],[-97.87858424185576,30.355117841552733],[-97.87834674329503,30.339561685823625],[-97.87888401402823,30.304639088164794],[-97.88246470905955,30.29594595633878],[-97.8998689162966,30.321074502742842],[-97.895203125,30.355656250000006],[-97.88377375867591,30.36358368926856]]]},"properties":{"zone_id":"s17-commons-ford-park","name":"S17 · Commons Ford Ranch Park shore","shore":"S","value_tier":"C","centroid_lat":30.3363,"centroid_lon":-97.8914,"detail_width_km":0}},{"type":"Feature","geometry":{"type":"Polygon","coordinates":[]},"properties":{"zone_id":"s18-lake-pointe","name":"S18 · Lake Pointe","shore":"S","value_tier":"B","centroid_lat":30.3185,"centroid_lon":-97.9171,"detail_width_km":1.3}},{"type":"Feature","geometry":{"type":"Polygon","coordinates":[]},"properties":{"zone_id":"s19-apache-shores","name":"S19 · Apache Shores (incl. Lake Apache / Indian Creek)","shore":"S","value_tier":"B","centroid_lat":30.374,"centroid_lon":-97.9212,"detail_width_km":1.4}},{"type":"Feature","geometry":{"type":"Polygon","coordinates":[[[-97.95488643050003,30.411705137209662],[-97.95424267826249,30.412749880994355],[-97.95357348061513,30.41377851165098],[-97.95287924065758,30.41479040957089],[-97.95216037657404,30.41578496522462],[-97.95141732138134,30.41676157952903],[-97.95065052266814,30.41771966420818],[-97.94986044232533,30.418658642147687],[-97.94904755626776,30.41957794774235],[-97.94902072212338,30.419606834197957],[-97.89309021739133,30.375999999999998],[-97.91138260869565,30.375999999999998],[-97.955,30.409439999999975],[-97.955,30.411510274278786],[-97.95488643050003,30.411705137209662]]]},"properties":{"zone_id":"s20-hidden-valley-fritz-hughes","name":"S20 · Hidden Valley / Fritz Hughes Park","shore":"S","value_tier":"B","centroid_lat":30.386,"centroid_lon":-97.912,"detail_width_km":1.2}},{"type":"Feature","geometry":{"type":"Polygon","coordinates":[[[-97.85741505906519,30.390672938573854],[-97.85746022718973,30.389446616283628],[-97.85753547716607,30.388221771820017],[-97.85764076366638,30.386999142983523],[-97.85777602327006,30.385779466240038],[-97.85794117450176,30.384563476277233],[-97.85813611788055,30.383351905561984],[-97.85836073597983,30.382145483899194],[-97.85861489349807,30.380944937992155],[-97.85889843734027,30.379750991004837],[-97.85921119671022,30.378564362126255],[-97.85955298321339,30.377385766137277],[-97.85992359097034,30.376215912980054],[-97.86032279674085,30.375055507330387],[-97.86075036005826,30.37390524817325],[-97.86120602337444,30.372765828381745],[-97.86168951221482,30.37163793429975],[-97.86220053534382,30.370522245328484],[-97.86273878494022,30.36941943351727],[-97.86330393678257,30.3683301631587],[-97.86389565044456,30.36725509038851],[-97.86451356949998,30.366194862790337],[-97.86515732173751,30.365150119005644],[-97.86582651938487,30.36412148834902],[-97.86652075934242,30.363109590429108],[-97.86723962342596,30.36211503477538],[-97.86798267861866,30.36113842047097],[-97.86874947733186,30.360180335791817],[-97.86953955767467,30.359241357852312],[-97.87035244373224,30.35832205225765],[-97.87118764585242,30.357422972763146],[-97.87204466094067,30.35654466094067],[-97.87292297276315,30.355687645852427],[-97.87382205225765,30.354852443732252],[-97.8747413578523,30.354039557674675],[-97.87568033579181,30.35324947733186],[-97.87663842047097,30.35248267861867],[-97.87761503477537,30.351739623425967],[-97.87860959042911,30.351020759342422],[-97.87962148834902,30.350326519384872],[-97.88065011900564,30.349657321737514],[-97.88169486279034,30.349013569499988],[-97.8827550903885,30.348395650444566],[-97.88383016315869,30.347803936782583],[-97.88491943351727,30.347238784940224],[-97.88602224532848,30.346700535343828],[-97.88713793429974,30.346189512214824],[-97.88826582838175,30.345706023374436],[-97.88940524817325,30.345250360058262],[-97.89055550733039,30.34482279674085],[-97.89171591298005,30.344423590970347],[-97.89288576613727,30.344052983213388],[-97.89406436212624,30.343711196710228],[-97.89525099100483,30.343398437340273],[-97.89644493799216,30.343114893498072],[-97.89764548389918,30.342860735979837],[-97.89885190556198,30.342636117880552],[-97.90006347627723,30.34244117450176],[-97.90127946624004,30.342276023270063],[-97.90249914298352,30.34214076366639],[-97.90372177182002,30.342035477166064],[-97.90494661628362,30.34196022718974],[-97.90617293857385,30.34191505906519],[-97.9074,30.3419],[-97.90862706142615,30.34191505906519],[-97.90985338371637,30.34196022718974],[-97.91107822817997,30.342035477166064],[-97.91230085701648,30.34214076366639],[-97.91352053375995,30.342276023270063],[-97.91473652372277,30.34244117450176],[-97.91594809443801,30.342636117880552],[-97.91715451610081,30.342860735979837],[-97.91835506200783,30.343114893498072],[-97.91954900899516,30.343398437340273],[-97.92073563787375,30.343711196710228],[-97.92191423386272,30.344052983213388],[-97.92308408701994,30.344423590970347],[-97.9242444926696,30.34482279674085],[-97.92539475182674,30.345250360058262],[-97.92653417161824,30.345706023374436],[-97.92766206570025,30.346189512214824],[-97.92877775467151,30.346700535343828],[-97.92988056648272,30.347238784940224],[-97.9309698368413,30.347803936782583],[-97.93204490961149,30.348395650444566],[-97.93310513720965,30.349013569499988],[-97.93414988099435,30.349657321737514],[-97.93517851165097,30.350326519384872],[-97.93619040957088,30.351020759342422],[-97.93718496522462,30.351739623425967],[-97.93816157952902,30.35248267861867],[-97.93911966420818,30.35324947733186],[-97.94005864214769,30.354039557674675],[-97.94097794774234,30.354852443732252],[-97.94187702723684,30.355687645852427],[-97.94275533905932,30.35654466094067],[-97.94361235414758,30.357422972763146],[-97.94444755626775,30.35832205225765],[-97.94526044232532,30.359241357852312],[-97.94605052266813,30.360180335791817],[-97.94681732138133,30.36113842047097],[-97.94756037657403,30.36211503477538],[-97.94827924065757,30.363109590429108],[-97.94897348061512,30.36412148834902],[-97.94964267826248,30.365150119005644],[-97.95028643050001,30.366194862790337],[-97.95090434955543,30.36725509038851],[-97.95149606321742,30.3683301631587],[-97.95206121505977,30.36941943351727],[-97.95259946465617,30.370522245328484],[-97.95311048778517,30.37163793429975],[-97.95359397662556,30.372765828381745],[-97.95404963994173,30.37390524817325],[-97.95447720325915,30.375055507330387],[-97.95487640902965,30.376215912980054],[-97.955,30.376606037806514],[-97.955,30.407193962193485],[-97.95487640902965,30.407584087019945],[-97.95447720325915,30.408744492669612],[-97.95404963994173,30.409894751826748],[-97.95359397662556,30.411034171618255],[-97.95311048778517,30.41216206570025],[-97.95259946465617,30.413277754671515],[-97.95206121505977,30.41438056648273],[-97.95149606321742,30.4154698368413],[-97.95090434955543,30.41654490961149],[-97.95028643050001,30.417605137209662],[-97.94964267826248,30.418649880994355],[-97.94897348061512,30.41967851165098],[-97.94827924065757,30.42069040957089],[-97.94756037657403,30.42168496522462],[-97.94681732138133,30.42266157952903],[-97.94605052266813,30.423619664208182],[-97.94526044232532,30.424558642147687],[-97.94444755626775,30.42547794774235],[-97.94361235414758,30.426377027236853],[-97.94275533905932,30.42725533905933],[-97.94187702723684,30.428112354147572],[-97.94097794774234,30.428947556267747],[-97.94005864214769,30.429760442325325],[-97.93911966420818,30.430550522668135],[-97.93816157952902,30.43131732138133],[-97.93718496522462,30.432060376574032],[-97.93619040957088,30.432779240657577],[-97.93517851165097,30.433473480615127],[-97.93414988099435,30.434142678262486],[-97.93310513720965,30.43478643050001],[-97.93273869394167,30.435],[-97.88206130605832,30.435],[-97.88169486279034,30.43478643050001],[-97.88065011900564,30.434142678262486],[-97.87962148834902,30.433473480615127],[-97.87860959042911,30.432779240657577],[-97.87761503477537,30.432060376574032],[-97.87663842047097,30.43131732138133],[-97.87568033579181,30.430550522668135],[-97.8747413578523,30.429760442325325],[-97.87382205225765,30.428947556267747],[-97.87292297276315,30.428112354147572],[-97.87204466094067,30.42725533905933],[-97.87118764585242,30.426377027236853],[-97.87035244373224,30.42547794774235],[-97.86953955767467,30.424558642147687],[-97.86874947733186,30.423619664208182],[-97.86798267861866,30.42266157952903],[-97.86723962342596,30.42168496522462],[-97.86652075934242,30.42069040957089],[-97.86582651938487,30.41967851165098],[-97.86515732173751,30.418649880994355],[-97.86451356949998,30.417605137209662],[-97.86389565044456,30.41654490961149],[-97.86330393678257,30.4154698368413],[-97.86273878494022,30.41438056648273],[-97.86220053534382,30.413277754671515],[-97.86168951221482,30.41216206570025],[-97.86120602337444,30.411034171618255],[-97.86075036005826,30.409894751826748],[-97.86032279674085,30.408744492669612],[-97.85992359097034,30.407584087019945],[-97.85955298321339,30.406414233862723],[-97.85921119671022,30.405235637873744],[-97.85889843734027,30.404049008995162],[-97.85861489349807,30.402855062007845],[-97.85836073597983,30.401654516100805],[-97.85813611788055,30.400448094438016],[-97.85794117450176,30.399236523722767],[-97.85777602327006,30.39802053375996],[-97.85764076366638,30.396800857016476],[-97.85753547716607,30.395578228179982],[-97.85746022718973,30.39435338371637],[-97.85741505906519,30.393127061426146],[-97.8574,30.3919],[-97.85741505906519,30.390672938573854]]]},"properties":{"zone_id":"s21-mansfield-dam-s","name":"S21 · Mansfield Dam terminus (S)","shore":"S","value_tier":"C","centroid_lat":30.3919,"centroid_lon":-97.9074,"detail_width_km":0}}]}