<?xml version="1.0" encoding="UTF-8"?>
<kml xmlns="http://www.opengis.net/kml/2.2"><Document>
<name>Lake Austin 2017 Drawdown Shot List — ATX Lakescapes</name>
<description>39 tiered waterfront areas + 9 cove/channel features. For each placemark: open Historical Imagery, set date to Jan 15 – Feb 13 2017 (drawdown floor), then Save Image. See EARTH_PRO_RUNBOOK.md.</description>
<Style id="tierA"><IconStyle><color>ff358db0</color><scale>1.2</scale></IconStyle><LabelStyle><color>ff358db0</color></LabelStyle></Style>
<Style id="tierB"><IconStyle><color>ff786e5a</color><scale>1.1</scale></IconStyle><LabelStyle><color>ff786e5a</color></LabelStyle></Style>
<Style id="tierC"><IconStyle><color>ff87878c</color><scale>1.0</scale></IconStyle><LabelStyle><color>ff87878c</color></LabelStyle></Style>
<Placemark><name>00 · WHOLE LAKE OVERVIEW</name><description>Context anchor. Lake Austin dam-to-dam.</description><LookAt><longitude>-97.85</longitude><latitude>30.34</latitude><altitude>0</altitude><range>24000</range><tilt>0</tilt><heading>0</heading></LookAt><styleUrl>#tierC</styleUrl><Point><coordinates>-97.85,30.34,0</coordinates></Point></Placemark>
<Folder><name>TIER A — high-$$ priority</name>
<Placemark><name>N1 · Tarrytown–Lake Austin Blvd corridor</name><description>Tier A · N bank · Oldest money on the lake — dense estate docks + bulkheads above Tom Miller Dam; $2–8M waterfront. | 2017 shot: context ~3 km + detail ~1.4 km</description><LookAt><longitude>-97.783</longitude><latitude>30.3</latitude><altitude>0</altitude><range>1540</range><tilt>0</tilt><heading>0</heading></LookAt><styleUrl>#tierA</styleUrl><Point><coordinates>-97.783,30.3,0</coordinates></Point></Placemark>
<Placemark><name>N3 · Mount Bonnell shores / Dry Creek mouth</name><description>Tier A · N bank · Cliff-top estates + toe-of-bluff docks; $1.5–6M; difficult-access work commands premium. | 2017 shot: context ~3 km + detail ~1.2 km</description><LookAt><longitude>-97.7745</longitude><latitude>30.3215</latitude><altitude>0</altitude><range>1320</range><tilt>0</tilt><heading>0</heading></LookAt><styleUrl>#tierA</styleUrl><Point><coordinates>-97.7745,30.3215,0</coordinates></Point></Placemark>
<Placemark><name>N4 · Watersedge (gated)</name><description>Tier A · N bank · Gated waterfront enclave at N base of Mt Bonnell; private estate docks. Coordinate ±200 m. | 2017 shot: context ~3 km + detail ~1.0 km</description><LookAt><longitude>-97.7782</longitude><latitude>30.3302</latitude><altitude>0</altitude><range>1100</range><tilt>0</tilt><heading>0</heading></LookAt><styleUrl>#tierA</styleUrl><Point><coordinates>-97.7782,30.3302,0</coordinates></Point></Placemark>
<Placemark><name>N5 · The Island at Mount Bonnell Shores — CANAL GRID</name><description>Tier A · N bank · ONLY verified canal-grid subdivision on Lake Austin — interior canals + private slips; canal-front listings $6.5–7M. Top canal-dredge / slip-cleanout target. | 2017 shot: context ~3 km + detail ~0.9 km</description><LookAt><longitude>-97.7777</longitude><latitude>30.3304</latitude><altitude>0</altitude><range>990</range><tilt>0</tilt><heading>0</heading></LookAt><styleUrl>#tierA</styleUrl><Point><coordinates>-97.7777,30.3304,0</coordinates></Point></Placemark>
<Placemark><name>N6 · The Courtyard (gated, Bull Creek arm)</name><description>Tier A · N bank · Gated community on Bull Creek arm; tennis club + docks/slips on the arm. Coordinate estimated. | 2017 shot: context ~3 km + detail ~1.1 km</description><LookAt><longitude>-97.792</longitude><latitude>30.354</latitude><altitude>0</altitude><range>1210</range><tilt>0</tilt><heading>0</heading></LookAt><styleUrl>#tierA</styleUrl><Point><coordinates>-97.792,30.354,0</coordinates></Point></Placemark>
<Placemark><name>N8 · Greenshores on Lake Austin</name><description>Tier A · N bank · Gated custom-home enclave with private lakefront park; $1.5–5M. | 2017 shot: context ~3 km + detail ~1.2 km</description><LookAt><longitude>-97.8167</longitude><latitude>30.3443</latitude><altitude>0</altitude><range>1320</range><tilt>0</tilt><heading>0</heading></LookAt><styleUrl>#tierA</styleUrl><Point><coordinates>-97.8167,30.3443,0</coordinates></Point></Placemark>
<Placemark><name>N9 · Ski Shores / Pearce / Manana strip</name><description>Tier A · N bank · Dock-dense cottage-to-estate strip; recent listings $5.3–7.2M; iconic Ski Shores dock. | 2017 shot: context ~3 km + detail ~1.2 km</description><LookAt><longitude>-97.825</longitude><latitude>30.331</latitude><altitude>0</altitude><range>1320</range><tilt>0</tilt><heading>0</heading></LookAt><styleUrl>#tierA</styleUrl><Point><coordinates>-97.825,30.331,0</coordinates></Point></Placemark>
<Placemark><name>N11 · Coldwater / Sanctuary at Coldwater</name><description>Tier A · N bank · Ultra-premium acreage estates; a 2,700-ft-frontage compound here listed at $45M. | 2017 shot: context ~3 km + detail ~1.4 km</description><LookAt><longitude>-97.852</longitude><latitude>30.352</latitude><altitude>0</altitude><range>1540</range><tilt>0</tilt><heading>0</heading></LookAt><styleUrl>#tierA</styleUrl><Point><coordinates>-97.852,30.352,0</coordinates></Point></Placemark>
<Placemark><name>N15 · Caslano on Lake Austin (Steiner Ranch)</name><description>Tier A · N bank · Gated Steiner Ranch waterfront section; custom estate docks. | 2017 shot: context ~3 km + detail ~1.1 km</description><LookAt><longitude>-97.9292</longitude><latitude>30.3383</latitude><altitude>0</altitude><range>1210</range><tilt>0</tilt><heading>0</heading></LookAt><styleUrl>#tierA</styleUrl><Point><coordinates>-97.9292,30.3383,0</coordinates></Point></Placemark>
<Placemark><name>N16 · Steiner Ranch waterfront — Bellagio / Lake Club</name><description>Tier A · N bank · Master-planned waterfront sections; community Lake Club day docks; listings ~$6M. | 2017 shot: context ~3 km + detail ~1.4 km</description><LookAt><longitude>-97.912</longitude><latitude>30.366</latitude><altitude>0</altitude><range>1540</range><tilt>0</tilt><heading>0</heading></LookAt><styleUrl>#tierA</styleUrl><Point><coordinates>-97.912,30.366,0</coordinates></Point></Placemark>
<Placemark><name>S2 · Laguna Loma</name><description>Tier A · S bank · Small luxury pocket; nearby waterfront lots $4.5–6M with dock permits. Verify boundaries. | 2017 shot: context ~3 km + detail ~1.0 km</description><LookAt><longitude>-97.7882</longitude><latitude>30.2993</latitude><altitude>0</altitude><range>1100</range><tilt>0</tilt><heading>0</heading></LookAt><styleUrl>#tierA</styleUrl><Point><coordinates>-97.7882,30.2993,0</coordinates></Point></Placemark>
<Placemark><name>S4 · Westlake Dr corridor / Lake Austin Marina</name><description>Tier A · S bank · Full-service marina, 168 slips + estate waterfront along Westlake Dr. | 2017 shot: context ~3 km + detail ~1.1 km</description><LookAt><longitude>-97.7844</longitude><latitude>30.3026</latitude><altitude>0</altitude><range>1210</range><tilt>0</tilt><heading>0</heading></LookAt><styleUrl>#tierA</styleUrl><Point><coordinates>-97.7844,30.3026,0</coordinates></Point></Placemark>
<Placemark><name>S5 · St. Tropez (gated villas)</name><description>Tier A · S bank · Gated Lake Austin waterfront villas with private slip access. Coordinate estimated. | 2017 shot: context ~3 km + detail ~1.0 km</description><LookAt><longitude>-97.803</longitude><latitude>30.315</latitude><altitude>0</altitude><range>1100</range><tilt>0</tilt><heading>0</heading></LookAt><styleUrl>#tierA</styleUrl><Point><coordinates>-97.803,30.315,0</coordinates></Point></Placemark>
<Placemark><name>S6 · Rockcliff Rd estates</name><description>Tier A · S bank · Trophy estate row (~$9.75M listing); big docks, long bulkheads. | 2017 shot: context ~3 km + detail ~1.2 km</description><LookAt><longitude>-97.7916</longitude><latitude>30.3402</latitude><altitude>0</altitude><range>1320</range><tilt>0</tilt><heading>0</heading></LookAt><styleUrl>#tierA</styleUrl><Point><coordinates>-97.7916,30.3402,0</coordinates></Point></Placemark>
<Placemark><name>S7 · Davenport Ranch</name><description>Tier A · S bank · Large established community; lakefront homes $3–7M+. | 2017 shot: context ~3 km + detail ~1.3 km</description><LookAt><longitude>-97.8055</longitude><latitude>30.328</latitude><altitude>0</altitude><range>1430</range><tilt>0</tilt><heading>0</heading></LookAt><styleUrl>#tierA</styleUrl><Point><coordinates>-97.8055,30.328,0</coordinates></Point></Placemark>
<Placemark><name>S8 · Austin Country Club environs</name><description>Tier A · S bank · 180-acre Pete Dye course + private boat slips; adjacent Laguna Ln estate lots. | 2017 shot: context ~3 km + detail ~1.3 km</description><LookAt><longitude>-97.7974</longitude><latitude>30.343</latitude><altitude>0</altitude><range>1430</range><tilt>0</tilt><heading>0</heading></LookAt><styleUrl>#tierA</styleUrl><Point><coordinates>-97.7974,30.343,0</coordinates></Point></Placemark>
<Placemark><name>S10 · Rivercrest</name><description>Tier A · S bank · Intimate Eanes ISD enclave; private boat ramp; main-body lots ~$7.5M. | 2017 shot: context ~3 km + detail ~1.1 km</description><LookAt><longitude>-97.8179</longitude><latitude>30.3345</latitude><altitude>0</altitude><range>1210</range><tilt>0</tilt><heading>0</heading></LookAt><styleUrl>#tierA</styleUrl><Point><coordinates>-97.8179,30.3345,0</coordinates></Point></Placemark>
<Placemark><name>S11 · River Hills Rd / Weston Ln</name><description>Tier A · S bank · Bluff-top and waterfront estates facing Emma Long; $5.5M listings. | 2017 shot: context ~3 km + detail ~1.3 km</description><LookAt><longitude>-97.8469</longitude><latitude>30.3432</latitude><altitude>0</altitude><range>1430</range><tilt>0</tilt><heading>0</heading></LookAt><styleUrl>#tierA</styleUrl><Point><coordinates>-97.8469,30.3432,0</coordinates></Point></Placemark>
<Placemark><name>S13 · Rob Roy on the Lake</name><description>Tier A · S bank · Ultra-private gated (&lt;50 homes), Eanes ISD; estates $3–15M+. Verify true frontage on imagery. | 2017 shot: context ~3 km + detail ~1.4 km</description><LookAt><longitude>-97.8477</longitude><latitude>30.3183</latitude><altitude>0</altitude><range>1540</range><tilt>0</tilt><heading>0</heading></LookAt><styleUrl>#tierA</styleUrl><Point><coordinates>-97.8477,30.3183,0</coordinates></Point></Placemark>
</Folder>
<Folder><name>TIER B — secondary</name>
<Placemark><name>N7 · Bull Creek arm mouth / County Line</name><description>Tier B · N bank · &#x27;Party Cove&#x27; + County Line dockage; silted delta at drawdown; hydrilla hot spot. | 2017 shot: context ~3 km + detail ~1.2 km</description><LookAt><longitude>-97.7856</longitude><latitude>30.3571</latitude><altitude>0</altitude><range>1320</range><tilt>0</tilt><heading>0</heading></LookAt><styleUrl>#tierB</styleUrl><Point><coordinates>-97.7856,30.3571,0</coordinates></Point></Placemark>
<Placemark><name>N12 · River Place / Panther Hollow arm</name><description>Tier B · N bank · True frontage concentrated along Panther Hollow arm; strong HOA-contract potential. | 2017 shot: context ~3 km + detail ~1.4 km</description><LookAt><longitude>-97.856</longitude><latitude>30.358</latitude><altitude>0</altitude><range>1540</range><tilt>0</tilt><heading>0</heading></LookAt><styleUrl>#tierB</styleUrl><Point><coordinates>-97.856,30.358,0</coordinates></Point></Placemark>
<Placemark><name>S1 · Stratford Hills / Redbud</name><description>Tier B · S bank · Hillside neighborhood, portion with deeded Lake Austin boat access; near Red Bud Isle. | 2017 shot: context ~3 km + detail ~1.2 km</description><LookAt><longitude>-97.7913</longitude><latitude>30.288</latitude><altitude>0</altitude><range>1320</range><tilt>0</tilt><heading>0</heading></LookAt><styleUrl>#tierB</styleUrl><Point><coordinates>-97.7913,30.288,0</coordinates></Point></Placemark>
<Placemark><name>S3 · Oyster Landing / Hula Hut–Mozart&#x27;s basin</name><description>Tier B · S bank · Restaurant docks + condo boat slips + marina basin at Oyster Landing. | 2017 shot: context ~3 km + detail ~1.0 km</description><LookAt><longitude>-97.7844</longitude><latitude>30.2947</latitude><altitude>0</altitude><range>1100</range><tilt>0</tilt><heading>0</heading></LookAt><styleUrl>#tierB</styleUrl><Point><coordinates>-97.7844,30.2947,0</coordinates></Point></Placemark>
<Placemark><name>S12 · Cypress Banks</name><description>Tier B · S bank · Small 78733 enclave; mixed waterfront. | 2017 shot: context ~3 km + detail ~1.1 km</description><LookAt><longitude>-97.8484</longitude><latitude>30.3333</latitude><altitude>0</altitude><range>1210</range><tilt>0</tilt><heading>0</heading></LookAt><styleUrl>#tierB</styleUrl><Point><coordinates>-97.8484,30.3333,0</coordinates></Point></Placemark>
<Placemark><name>S14 · Bee Creek arm</name><description>Tier B · S bank · Long creek arm behind Rob Roy / Cuernavaca; prime dock-exposure shots at -10 ft; hydrilla-prone. | 2017 shot: context ~3 km + detail ~1.4 km</description><LookAt><longitude>-97.855</longitude><latitude>30.34</latitude><altitude>0</altitude><range>1540</range><tilt>0</tilt><heading>0</heading></LookAt><styleUrl>#tierB</styleUrl><Point><coordinates>-97.855,30.34,0</coordinates></Point></Placemark>
<Placemark><name>S15 · Cuernavaca / River Terrace / Saratoga Point</name><description>Tier B · S bank · Secluded waterfront community; River Terrace estates ~$6.2M. | 2017 shot: context ~3 km + detail ~1.3 km</description><LookAt><longitude>-97.8652</longitude><latitude>30.3367</latitude><altitude>0</altitude><range>1430</range><tilt>0</tilt><heading>0</heading></LookAt><styleUrl>#tierB</styleUrl><Point><coordinates>-97.8652,30.3367,0</coordinates></Point></Placemark>
<Placemark><name>S16 · Austin Lake Hills</name><description>Tier B · S bank · Large subdivision; community lake park; scattered docks. | 2017 shot: context ~3 km + detail ~1.3 km</description><LookAt><longitude>-97.8654</longitude><latitude>30.3359</latitude><altitude>0</altitude><range>1430</range><tilt>0</tilt><heading>0</heading></LookAt><styleUrl>#tierB</styleUrl><Point><coordinates>-97.8654,30.3359,0</coordinates></Point></Placemark>
<Placemark><name>S18 · Lake Pointe</name><description>Tier B · S bank · Big master-planned HOA (&#x27;Lake Pointe on Lake Austin&#x27;); verify actual frontage. | 2017 shot: context ~3 km + detail ~1.3 km</description><LookAt><longitude>-97.9171</longitude><latitude>30.3185</latitude><altitude>0</altitude><range>1430</range><tilt>0</tilt><heading>0</heading></LookAt><styleUrl>#tierB</styleUrl><Point><coordinates>-97.9171,30.3185,0</coordinates></Point></Placemark>
<Placemark><name>S19 · Apache Shores (incl. Lake Apache / Indian Creek)</name><description>Tier B · S bank · POA lake park + private ramp; interior Lake Apache / Indian Creek; volume play (~$0.4–0.9M). | 2017 shot: context ~3 km + detail ~1.4 km</description><LookAt><longitude>-97.9212</longitude><latitude>30.374</latitude><altitude>0</altitude><range>1540</range><tilt>0</tilt><heading>0</heading></LookAt><styleUrl>#tierB</styleUrl><Point><coordinates>-97.9212,30.374,0</coordinates></Point></Placemark>
<Placemark><name>S20 · Hidden Valley / Fritz Hughes Park</name><description>Tier B · S bank · Custom homes with HOA boat ramp below Mansfield Dam. Coordinate estimated. | 2017 shot: context ~3 km + detail ~1.2 km</description><LookAt><longitude>-97.912</longitude><latitude>30.386</latitude><altitude>0</altitude><range>1320</range><tilt>0</tilt><heading>0</heading></LookAt><styleUrl>#tierB</styleUrl><Point><coordinates>-97.912,30.386,0</coordinates></Point></Placemark>
</Folder>
<Folder><name>TIER C — context/benchmark</name>
<Placemark><name>N2 · Laguna Gloria / Mayfield shore</name><description>Tier C · N bank · Museum/park shoreline (The Contemporary); minimal private dock infrastructure; context. | 2017 shot: context ~3 km</description><LookAt><longitude>-97.7742</longitude><latitude>30.3121</latitude><altitude>0</altitude><range>2500</range><tilt>0</tilt><heading>0</heading></LookAt><styleUrl>#tierC</styleUrl><Point><coordinates>-97.7742,30.3121,0</coordinates></Point></Placemark>
<Placemark><name>N10 · Emma Long Metropolitan Park shore</name><description>Tier C · N bank · Public park beach/boat ramp; before/after public benchmark shots. | 2017 shot: context ~3 km</description><LookAt><longitude>-97.8419</longitude><latitude>30.328</latitude><altitude>0</altitude><range>2500</range><tilt>0</tilt><heading>0</heading></LookAt><styleUrl>#tierC</styleUrl><Point><coordinates>-97.8419,30.328,0</coordinates></Point></Placemark>
<Placemark><name>N13 · Turkey Creek arm</name><description>Tier C · N bank · Creek arm threading into Emma Long; heavy siltation at drawdown. | 2017 shot: context ~3 km</description><LookAt><longitude>-97.8398</longitude><latitude>30.3556</latitude><altitude>0</altitude><range>2500</range><tilt>0</tilt><heading>0</heading></LookAt><styleUrl>#tierC</styleUrl><Point><coordinates>-97.8398,30.3556,0</coordinates></Point></Placemark>
<Placemark><name>N14 · Selma Hughes Park shore</name><description>Tier C · N bank · Travis County park ramp/pier; benchmark shots. | 2017 shot: context ~3 km</description><LookAt><longitude>-97.904</longitude><latitude>30.338</latitude><altitude>0</altitude><range>2500</range><tilt>0</tilt><heading>0</heading></LookAt><styleUrl>#tierC</styleUrl><Point><coordinates>-97.904,30.338,0</coordinates></Point></Placemark>
<Placemark><name>N17 · Mary Quinlan Park / Lake Austin Spa shore</name><description>Tier C · N bank · Public ramp + 19-acre luxury spa resort shoreline. | 2017 shot: context ~3 km</description><LookAt><longitude>-97.9261</longitude><latitude>30.3272</latitude><altitude>0</altitude><range>2500</range><tilt>0</tilt><heading>0</heading></LookAt><styleUrl>#tierC</styleUrl><Point><coordinates>-97.9261,30.3272,0</coordinates></Point></Placemark>
<Placemark><name>N18 · Mansfield Dam terminus (N)</name><description>Tier C · N bank · Dam face, intake structures; end of navigable lake; context anchor. | 2017 shot: context ~3 km</description><LookAt><longitude>-97.9074</longitude><latitude>30.3919</latitude><altitude>0</altitude><range>2500</range><tilt>0</tilt><heading>0</heading></LookAt><styleUrl>#tierC</styleUrl><Point><coordinates>-97.9074,30.3919,0</coordinates></Point></Placemark>
<Placemark><name>S9 · Loop 360 Boat Ramp / Pennybacker Bridge</name><description>Tier C · S bank · Public ramp under Pennybacker Bridge; context. | 2017 shot: context ~3 km</description><LookAt><longitude>-97.7974</longitude><latitude>30.3485</latitude><altitude>0</altitude><range>2500</range><tilt>0</tilt><heading>0</heading></LookAt><styleUrl>#tierC</styleUrl><Point><coordinates>-97.7974,30.3485,0</coordinates></Point></Placemark>
<Placemark><name>S17 · Commons Ford Ranch Park shore</name><description>Tier C · S bank · City park shoreline; low dock density; context. | 2017 shot: context ~3 km</description><LookAt><longitude>-97.8914</longitude><latitude>30.3363</latitude><altitude>0</altitude><range>2500</range><tilt>0</tilt><heading>0</heading></LookAt><styleUrl>#tierC</styleUrl><Point><coordinates>-97.8914,30.3363,0</coordinates></Point></Placemark>
<Placemark><name>S21 · Mansfield Dam terminus (S)</name><description>Tier C · S bank · Dam + LCRA Jessica Hollis Park; context anchor. | 2017 shot: context ~3 km</description><LookAt><longitude>-97.9074</longitude><latitude>30.3919</latitude><altitude>0</altitude><range>2500</range><tilt>0</tilt><heading>0</heading></LookAt><styleUrl>#tierC</styleUrl><Point><coordinates>-97.9074,30.3919,0</coordinates></Point></Placemark>
</Folder>
<Folder><name>COVES · CHANNELS · CANAL FEATURES</name>
<Placemark><name>The Island canal grid</name><description>Tier A · Only true interior canal grid verified on Lake Austin — top-priority dredge/slip subject.</description><LookAt><longitude>-97.778</longitude><latitude>30.3305</latitude><altitude>0</altitude><range>1400</range><tilt>0</tilt><heading>0</heading></LookAt><styleUrl>#tierA</styleUrl><Point><coordinates>-97.778,30.3305,0</coordinates></Point></Placemark>
<Placemark><name>Bull Creek arm (&#x27;Party Cove&#x27;)</name><description>Tier B · Wide creek mouth; major sediment delta at drawdown.</description><LookAt><longitude>-97.7856</longitude><latitude>30.3571</latitude><altitude>0</altitude><range>1400</range><tilt>0</tilt><heading>0</heading></LookAt><styleUrl>#tierB</styleUrl><Point><coordinates>-97.7856,30.3571,0</coordinates></Point></Placemark>
<Placemark><name>Dry Creek</name><description>Tier C · Small creek at Mt Bonnell. Est.</description><LookAt><longitude>-97.777</longitude><latitude>30.324</latitude><altitude>0</altitude><range>1400</range><tilt>0</tilt><heading>0</heading></LookAt><styleUrl>#tierC</styleUrl><Point><coordinates>-97.777,30.324,0</coordinates></Point></Placemark>
<Placemark><name>Turkey Creek arm</name><description>Tier C · Arm into Emma Long.</description><LookAt><longitude>-97.8398</longitude><latitude>30.3556</latitude><altitude>0</altitude><range>1400</range><tilt>0</tilt><heading>0</heading></LookAt><styleUrl>#tierC</styleUrl><Point><coordinates>-97.8398,30.3556,0</coordinates></Point></Placemark>
<Placemark><name>Panther Hollow Creek arm</name><description>Tier B · Named creek arm in River Place reach.</description><LookAt><longitude>-97.8565</longitude><latitude>30.3601</latitude><altitude>0</altitude><range>1400</range><tilt>0</tilt><heading>0</heading></LookAt><styleUrl>#tierB</styleUrl><Point><coordinates>-97.8565,30.3601,0</coordinates></Point></Placemark>
<Placemark><name>Eanes Creek mouth</name><description>Tier C · S bank near downstream end. Est.</description><LookAt><longitude>-97.79</longitude><latitude>30.29</latitude><altitude>0</altitude><range>1400</range><tilt>0</tilt><heading>0</heading></LookAt><styleUrl>#tierC</styleUrl><Point><coordinates>-97.79,30.29,0</coordinates></Point></Placemark>
<Placemark><name>Bee Creek arm</name><description>Tier B · Long arm; prime dock-exposure shots.</description><LookAt><longitude>-97.855</longitude><latitude>30.34</latitude><altitude>0</altitude><range>1400</range><tilt>0</tilt><heading>0</heading></LookAt><styleUrl>#tierB</styleUrl><Point><coordinates>-97.855,30.34,0</coordinates></Point></Placemark>
<Placemark><name>Oyster Landing basin</name><description>Tier B · Man-made marina basin.</description><LookAt><longitude>-97.7844</longitude><latitude>30.2947</latitude><altitude>0</altitude><range>1400</range><tilt>0</tilt><heading>0</heading></LookAt><styleUrl>#tierB</styleUrl><Point><coordinates>-97.7844,30.2947,0</coordinates></Point></Placemark>
<Placemark><name>Lake Apache / Indian Creek</name><description>Tier B · Apache Shores interior quasi-canal system. Est.</description><LookAt><longitude>-97.921</longitude><latitude>30.374</latitude><altitude>0</altitude><range>1400</range><tilt>0</tilt><heading>0</heading></LookAt><styleUrl>#tierB</styleUrl><Point><coordinates>-97.921,30.374,0</coordinates></Point></Placemark>
</Folder></Document></kml>
